{
  "schema": "int-temerity-real-tle-snapshot/v1",
  "source": "celestrak",
  "group": "STARLINK",
  "format": "celestrak-gp-json",
  "source_url": "https://celestrak.org/NORAD/elements/gp.php?NAME=STARLINK&FORMAT=JSON",
  "downloaded_at": "2026-06-26T09:52:00.103Z",
  "generated_at": "2026-06-26T09:52:00.244Z",
  "fingerprint": "ba85ff7c",
  "shell_id": "starlink-real-43deg-490km",
  "catalog_count": 10658,
  "shell_count": 3264,
  "selected_count": 64,
  "mean_altitude_km": 490.15,
  "mean_inclination_deg": 43.002,
  "mean_mean_motion_rev_per_day": 15.27590899,
  "layout": {
    "planes": 8,
    "satellites_per_plane": 8,
    "selection_strategy": "largest-shell-raan-clusters-even-slot-sampling",
    "raan_cluster_threshold_deg": 1.5
  },
  "satellites": [
    {
      "satellite_id": "P01-S01",
      "norad_id": 66516,
      "satellite_name": "STARLINK-35924",
      "cospar_id": "2025-265A",
      "shell_id": "starlink-real-43deg-490km",
      "plane_id": 0,
      "slot_id": 0,
      "epoch": "2026-06-25T14:58:38.477280",
      "inclination": 43.0035,
      "raan": 28.123800000000017,
      "eccentricity": 0.0005181,
      "argument_of_perigee": 292.54330000000004,
      "mean_anomaly": 67.48699999999997,
      "mean_motion": 15.27610024,
      "bstar": 0.00085049,
      "status": "active",
      "raw_omm": {
        "OBJECT_NAME": "STARLINK-35924",
        "OBJECT_ID": "2025-265A",
        "EPOCH": "2026-06-25T14:58:38.477280",
        "MEAN_MOTION": 15.27610024,
        "ECCENTRICITY": 0.0005181,
        "INCLINATION": 43.0035,
        "RA_OF_ASC_NODE": 28.1238,
        "ARG_OF_PERICENTER": 292.5433,
        "MEAN_ANOMALY": 67.487,
        "EPHEMERIS_TYPE": 0,
        "CLASSIFICATION_TYPE": "U",
        "NORAD_CAT_ID": 66516,
        "ELEMENT_SET_NO": 999,
        "REV_AT_EPOCH": 3362,
        "BSTAR": 0.00085049,
        "MEAN_MOTION_DOT": 0.00023243,
        "MEAN_MOTION_DDOT": 0
      },
      "source": "celestrak",
      "source_url": "https://celestrak.org/NORAD/elements/gp.php?NAME=STARLINK&FORMAT=JSON",
      "catalog_fingerprint": "ba85ff7c"
    },
    {
      "satellite_id": "P01-S02",
      "norad_id": 61920,
      "satellite_name": "STARLINK-32616",
      "cospar_id": "2024-207J",
      "shell_id": "starlink-real-43deg-490km",
      "plane_id": 0,
      "slot_id": 1,
      "epoch": "2026-06-25T23:36:52.765056",
      "inclination": 43.0039,
      "raan": 30.209000000000003,
      "eccentricity": 0.0001746,
      "argument_of_perigee": 263.5239,
      "mean_anomaly": 96.54140000000001,
      "mean_motion": 15.27598281,
      "bstar": 0.00077718,
      "status": "active",
      "raw_omm": {
        "OBJECT_NAME": "STARLINK-32616",
        "OBJECT_ID": "2024-207J",
        "EPOCH": "2026-06-25T23:36:52.765056",
        "MEAN_MOTION": 15.27598281,
        "ECCENTRICITY": 0.0001746,
        "INCLINATION": 43.0039,
        "RA_OF_ASC_NODE": 30.209,
        "ARG_OF_PERICENTER": 263.5239,
        "MEAN_ANOMALY": 96.5414,
        "EPHEMERIS_TYPE": 0,
        "CLASSIFICATION_TYPE": "U",
        "NORAD_CAT_ID": 61920,
        "ELEMENT_SET_NO": 999,
        "REV_AT_EPOCH": 9128,
        "BSTAR": 0.00077718,
        "MEAN_MOTION_DOT": 0.00021198,
        "MEAN_MOTION_DDOT": 0
      },
      "source": "celestrak",
      "source_url": "https://celestrak.org/NORAD/elements/gp.php?NAME=STARLINK&FORMAT=JSON",
      "catalog_fingerprint": "ba85ff7c"
    },
    {
      "satellite_id": "P01-S03",
      "norad_id": 57110,
      "satellite_name": "STARLINK-6134",
      "cospar_id": "2023-090K",
      "shell_id": "starlink-real-43deg-490km",
      "plane_id": 0,
      "slot_id": 2,
      "epoch": "2026-06-25T23:22:03.085248",
      "inclination": 43.0056,
      "raan": 29.97860000000003,
      "eccentricity": 0.0001642,
      "argument_of_perigee": 293.13419999999996,
      "mean_anomaly": 66.93369999999999,
      "mean_motion": 15.27586618,
      "bstar": -0.0000012783,
      "status": "active",
      "raw_omm": {
        "OBJECT_NAME": "STARLINK-6134",
        "OBJECT_ID": "2023-090K",
        "EPOCH": "2026-06-25T23:22:03.085248",
        "MEAN_MOTION": 15.27586618,
        "ECCENTRICITY": 0.0001642,
        "INCLINATION": 43.0056,
        "RA_OF_ASC_NODE": 29.9786,
        "ARG_OF_PERICENTER": 293.1342,
        "MEAN_ANOMALY": 66.9337,
        "EPHEMERIS_TYPE": 0,
        "CLASSIFICATION_TYPE": "U",
        "NORAD_CAT_ID": 57110,
        "ELEMENT_SET_NO": 999,
        "REV_AT_EPOCH": 16689,
        "BSTAR": -0.0000012783,
        "MEAN_MOTION_DOT": -0.00000298,
        "MEAN_MOTION_DDOT": 0
      },
      "source": "celestrak",
      "source_url": "https://celestrak.org/NORAD/elements/gp.php?NAME=STARLINK&FORMAT=JSON",
      "catalog_fingerprint": "ba85ff7c"
    },
    {
      "satellite_id": "P01-S04",
      "norad_id": 56692,
      "satellite_name": "STARLINK-30036",
      "cospar_id": "2023-067E",
      "shell_id": "starlink-real-43deg-490km",
      "plane_id": 0,
      "slot_id": 3,
      "epoch": "2026-06-25T23:44:08.819808",
      "inclination": 43.0044,
      "raan": 29.612099999999998,
      "eccentricity": 0.0001452,
      "argument_of_perigee": 272.80179999999996,
      "mean_anomaly": 87.26679999999999,
      "mean_motion": 15.27569322,
      "bstar": 0.0000048308,
      "status": "active",
      "raw_omm": {
        "OBJECT_NAME": "STARLINK-30036",
        "OBJECT_ID": "2023-067E",
        "EPOCH": "2026-06-25T23:44:08.819808",
        "MEAN_MOTION": 15.27569322,
        "ECCENTRICITY": 0.0001452,
        "INCLINATION": 43.0044,
        "RA_OF_ASC_NODE": 29.6121,
        "ARG_OF_PERICENTER": 272.8018,
        "MEAN_ANOMALY": 87.2668,
        "EPHEMERIS_TYPE": 0,
        "CLASSIFICATION_TYPE": "U",
        "NORAD_CAT_ID": 56692,
        "ELEMENT_SET_NO": 999,
        "REV_AT_EPOCH": 17101,
        "BSTAR": 0.0000048308,
        "MEAN_MOTION_DOT": -0.00000129,
        "MEAN_MOTION_DDOT": 0
      },
      "source": "celestrak",
      "source_url": "https://celestrak.org/NORAD/elements/gp.php?NAME=STARLINK&FORMAT=JSON",
      "catalog_fingerprint": "ba85ff7c"
    },
    {
      "satellite_id": "P01-S05",
      "norad_id": 56688,
      "satellite_name": "STARLINK-30122",
      "cospar_id": "2023-067A",
      "shell_id": "starlink-real-43deg-490km",
      "plane_id": 0,
      "slot_id": 4,
      "epoch": "2026-06-25T14:49:30.366048",
      "inclination": 43.0032,
      "raan": 28.539699999999982,
      "eccentricity": 0.0001186,
      "argument_of_perigee": 272.96990000000005,
      "mean_anomaly": 87.1017,
      "mean_motion": 15.27575636,
      "bstar": 0.000010383,
      "status": "active",
      "raw_omm": {
        "OBJECT_NAME": "STARLINK-30122",
        "OBJECT_ID": "2023-067A",
        "EPOCH": "2026-06-25T14:49:30.366048",
        "MEAN_MOTION": 15.27575636,
        "ECCENTRICITY": 0.0001186,
        "INCLINATION": 43.0032,
        "RA_OF_ASC_NODE": 28.5397,
        "ARG_OF_PERICENTER": 272.9699,
        "MEAN_ANOMALY": 87.1017,
        "EPHEMERIS_TYPE": 0,
        "CLASSIFICATION_TYPE": "U",
        "NORAD_CAT_ID": 56688,
        "ELEMENT_SET_NO": 999,
        "REV_AT_EPOCH": 17219,
        "BSTAR": 0.000010383,
        "MEAN_MOTION_DOT": 2.4e-7,
        "MEAN_MOTION_DDOT": 0
      },
      "source": "celestrak",
      "source_url": "https://celestrak.org/NORAD/elements/gp.php?NAME=STARLINK&FORMAT=JSON",
      "catalog_fingerprint": "ba85ff7c"
    },
    {
      "satellite_id": "P01-S06",
      "norad_id": 62605,
      "satellite_name": "STARLINK-32742",
      "cospar_id": "2025-008U",
      "shell_id": "starlink-real-43deg-490km",
      "plane_id": 0,
      "slot_id": 5,
      "epoch": "2026-06-25T14:47:32.438688",
      "inclination": 42.9988,
      "raan": 28.126199999999983,
      "eccentricity": 0.0000904,
      "argument_of_perigee": 263.9501,
      "mean_anomaly": 96.12470000000002,
      "mean_motion": 15.27635254,
      "bstar": 0.00089868,
      "status": "active",
      "raw_omm": {
        "OBJECT_NAME": "STARLINK-32742",
        "OBJECT_ID": "2025-008U",
        "EPOCH": "2026-06-25T14:47:32.438688",
        "MEAN_MOTION": 15.27635254,
        "ECCENTRICITY": 0.0000904,
        "INCLINATION": 42.9988,
        "RA_OF_ASC_NODE": 28.1262,
        "ARG_OF_PERICENTER": 263.9501,
        "MEAN_ANOMALY": 96.1247,
        "EPHEMERIS_TYPE": 0,
        "CLASSIFICATION_TYPE": "U",
        "NORAD_CAT_ID": 62605,
        "ELEMENT_SET_NO": 999,
        "REV_AT_EPOCH": 8212,
        "BSTAR": 0.00089868,
        "MEAN_MOTION_DOT": 0.00024592,
        "MEAN_MOTION_DDOT": 0
      },
      "source": "celestrak",
      "source_url": "https://celestrak.org/NORAD/elements/gp.php?NAME=STARLINK&FORMAT=JSON",
      "catalog_fingerprint": "ba85ff7c"
    }
  ]
}