STARLINK-30122          
1 56688U 23067A   26176.61771257  .00000024  00000+0  10383-4 0  9993
2 56688  43.0032  28.5397 0001186 272.9699  87.1017 15.27575636172192
STARLINK-30036          
1 56692U 23067E   26176.98899097 -.00000129  00000+0  48308-5 0  9997
2 56692  43.0044  29.6121 0001452 272.8018  87.2668 15.27569322171015
STARLINK-6134           
1 57110U 23090K   26176.97364682 -.00000298  00000+0 -12783-5 0  9991
2 57110  43.0056  29.9786 0001642 293.1342  66.9337 15.27586618166895
STARLINK-32616          
1 61920U 24207J   26176.98394404  .00021198  00000+0  77718-3 0  9999
2 61920  43.0039  30.2090 0001746 263.5239  96.5414 15.27598281 91288
STARLINK-32742          
1 62605U 25008U   26176.61634767  .00024592  00000+0  89868-3 0  9999
2 62605  42.9988  28.1262 0000904 263.9501  96.1247 15.27635254 82123
STARLINK-35924          
1 66516U 25265A   26176.62405645  .00023243  00000+0  85049-3 0  9990
2 66516  43.0035  28.1238 0005181 292.5433  67.4870 15.27610024 33622
